start=new Date('2021-08-31T00:00:00.000Z').valueOf();
sats=[{"BSTAR":"-0.00013212000000","ECCENTRICITY":"0.00007280","LAUNCH_DATE":"2020-04-22","FILE":"3105635","MEAN_ELEMENT_THEORY":"SGP4","ELEMENT_SET_NO":"999","PERIOD":"95.593","ARG_OF_PERICENTER":"109.1962","MEAN_MOTION":"15.06385571","OBJECT_NAME":"STARLINK-1320","NORAD_CAT_ID":"45572","EPOCH":"2021-08-30T11:01:51.826368","SITE":"AFETR","TLE_LINE1":"1 45572U 20025AT  21242.45962762 -.00002248  00000-0 -13212-3 0  9994","CENTER_NAME":"EARTH","CLASSIFICATION_TYPE":"U","OBJECT_TYPE":"PAYLOAD","REF_FRAME":"TEME","OBJECT_ID":"2020-025AT","REV_AT_EPOCH":"7648","GP_ID":"183730127","MEAN_MOTION_DOT":"-0.00002248","APOAPSIS":"547.762","MEAN_ANOMALY":"250.9106","COUNTRY_CODE":"US","TLE_LINE2":"2 45572  53.0547 293.7801 0000728 109.1962 250.9106 15.06385571 76483","SEMIMAJOR_AXIS":"6925.393","INCLINATION":"53.0547","DECAY_DATE":null,"PERIAPSIS":"546.754","RA_OF_ASC_NODE":"293.7801","TIME_SYSTEM":"UTC","MEAN_MOTION_DDOT":"0.0000000000000","RCS_SIZE":"LARGE","EPHEMERIS_TYPE":"0"},{"CLASSIFICATION_TYPE":"U","OBJECT_TYPE":"PAYLOAD","REF_FRAME":"TEME","SITE":"AFETR","TLE_LINE1":"1 45573U 20025AU  21242.50385024 -.00002036  00000-0 -11789-3 0  9993","CENTER_NAME":"EARTH","EPOCH":"2021-08-30T12:05:32.660736","OBJECT_ID":"2020-025AU","BSTAR":"-0.00011789000000","NORAD_CAT_ID":"45573","MEAN_MOTION":"15.06385237","PERIOD":"95.593","ARG_OF_PERICENTER":"83.6079","OBJECT_NAME":"STARLINK-1321","FILE":"3105635","LAUNCH_DATE":"2020-04-22","MEAN_ELEMENT_THEORY":"SGP4","ELEMENT_SET_NO":"999","ECCENTRICITY":"0.00012390","PERIAPSIS":"546.401","RA_OF_ASC_NODE":"293.5758","DECAY_DATE":null,"INCLINATION":"53.0536","SEMIMAJOR_AXIS":"6925.394","EPHEMERIS_TYPE":"0","MEAN_MOTION_DDOT":"0.0000000000000","RCS_SIZE":"LARGE","TIME_SYSTEM":"UTC","MEAN_ANOMALY":"276.5051","MEAN_MOTION_DOT":"-0.00002036","APOAPSIS":"548.117","GP_ID":"183730873","REV_AT_EPOCH":"7618","TLE_LINE2":"2 45573  53.0536 293.5758 0001239  83.6079 276.5051 15.06385237 76183","COUNTRY_CODE":"US"},{"ECCENTRICITY":"0.00009330","ELEMENT_SET_NO":"999","MEAN_ELEMENT_THEORY":"SGP4","FILE":"3105635","LAUNCH_DATE":"2020-04-22","OBJECT_NAME":"STARLINK-1324","ARG_OF_PERICENTER":"99.2773","PERIOD":"95.592","MEAN_MOTION":"15.06396805","NORAD_CAT_ID":"45574","BSTAR":"-0.00012779000000","OBJECT_ID":"2020-025AV","EPOCH":"2021-08-30T11:07:09.841440","CENTER_NAME":"EARTH","SITE":"AFETR","TLE_LINE1":"1 45574U 20025AV  21242.46330835 -.00002184  00000-0 -12779-3 0  9993","CLASSIFICATION_TYPE":"U","OBJECT_TYPE":"PAYLOAD","REF_FRAME":"TEME","COUNTRY_CODE":"US","TLE_LINE2":"2 45574  53.0540 293.7591 0000933  99.2773 260.8321 15.06396805 76493","REV_AT_EPOCH":"7649","GP_ID":"183729126","APOAPSIS":"547.869","MEAN_MOTION_DOT":"-0.00002184","MEAN_ANOMALY":"260.8321","TIME_SYSTEM":"UTC","RCS_SIZE":"LARGE","MEAN_MOTION_DDOT":"0.0000000000000","EPHEMERIS_TYPE":"0","SEMIMAJOR_AXIS":"6925.358","INCLINATION":"53.0540","DECAY_DATE":null,"RA_OF_ASC_NODE":"293.7591","PERIAPSIS":"546.577"},{"TLE_LINE2":"2 45575  53.0011 291.1603 0000984  80.1587 279.9513 15.07663434 76514","COUNTRY_CODE":"US","MEAN_ANOMALY":"279.9513","MEAN_MOTION_DOT":"0.00009230","APOAPSIS":"544.025","GP_ID":"183729376","REV_AT_EPOCH":"7651","EPHEMERIS_TYPE":"0","MEAN_MOTION_DDOT":"0.0000000000000","RCS_SIZE":"LARGE","TIME_SYSTEM":"UTC","PERIAPSIS":"542.663","RA_OF_ASC_NODE":"291.1603","DECAY_DATE":null,"INCLINATION":"53.0011","SEMIMAJOR_AXIS":"6921.479","NORAD_CAT_ID":"45575","MEAN_MOTION":"15.07663434","PERIOD":"95.512","ARG_OF_PERICENTER":"80.1587","OBJECT_NAME":"STARLINK-1326","LAUNCH_DATE":"2020-04-22","FILE":"3105635","MEAN_ELEMENT_THEORY":"SGP4","ELEMENT_SET_NO":"999","ECCENTRICITY":"0.00009840","BSTAR":"0.00061647000000","OBJECT_ID":"2020-025AW","OBJECT_TYPE":"PAYLOAD","CLASSIFICATION_TYPE":"U","REF_FRAME":"TEME","TLE_LINE1":"1 45575U 20025AW  21242.47898533  .00009230  00000-0  61647-3 0  9994","SITE":"AFETR","CENTER_NAME":"EARTH","EPOCH":"2021-08-30T11:29:44.332512"},{"TIME_SYSTEM":"UTC","EPHEMERIS_TYPE":"0","MEAN_MOTION_DDOT":"0.0000000000000","RCS_SIZE":"LARGE","INCLINATION":"53.0538","SEMIMAJOR_AXIS":"6925.371","PERIAPSIS":"546.692","RA_OF_ASC_NODE":"293.6461","DECAY_DATE":null,"COUNTRY_CODE":"US","TLE_LINE2":"2 45576  53.0538 293.6461 0000786  92.2644 267.8435 15.06392532 76499","GP_ID":"183730627","REV_AT_EPOCH":"7649","MEAN_ANOMALY":"267.8435","MEAN_MOTION_DOT":"-0.00002171","APOAPSIS":"547.781","OBJECT_ID":"2020-025AX","TLE_LINE1":"1 45576U 20025AX  21242.48911216 -.00002171  00000-0 -12695-3 0  9998","SITE":"AFETR","CENTER_NAME":"EARTH","EPOCH":"2021-08-30T11:44:19.290624","REF_FRAME":"TEME","OBJECT_TYPE":"PAYLOAD","CLASSIFICATION_TYPE":"U","MEAN_ELEMENT_THEORY":"SGP4","FILE":"3105635","LAUNCH_DATE":"2020-04-22","ELEMENT_SET_NO":"999","ECCENTRICITY":"0.00007860","NORAD_CAT_ID":"45576","ARG_OF_PERICENTER":"92.2644","PERIOD":"95.593","MEAN_MOTION":"15.06392532","OBJECT_NAME":"STARLINK-1328","BSTAR":"-0.00012695000000"},{"OBJECT_ID":"2020-025AY","OBJECT_TYPE":"PAYLOAD","REF_FRAME":"TEME","CLASSIFICATION_TYPE":"U","CENTER_NAME":"EARTH","TLE_LINE1":"1 45577U 20025AY  21242.44487558  .00000081  00000-0  24311-4 0  9997","SITE":"AFETR","EPOCH":"2021-08-30T10:40:37.250112","NORAD_CAT_ID":"45577","OBJECT_NAME":"STARLINK-1330","PERIOD":"95.593","MEAN_MOTION":"15.06393233","ARG_OF_PERICENTER":"101.4396","ELEMENT_SET_NO":"999","MEAN_ELEMENT_THEORY":"SGP4","FILE":"3105635","LAUNCH_DATE":"2020-04-22","ECCENTRICITY":"0.00009970","BSTAR":"0.00002431100000","EPHEMERIS_TYPE":"0","RCS_SIZE":"LARGE","MEAN_MOTION_DDOT":"0.0000000000000","TIME_SYSTEM":"UTC","RA_OF_ASC_NODE":"293.8430","PERIAPSIS":"546.544","DECAY_DATE":null,"INCLINATION":"53.0544","SEMIMAJOR_AXIS":"6925.369","TLE_LINE2":"2 45577  53.0544 293.8430 0000997 101.4396 258.6705 15.06393233 76471","COUNTRY_CODE":"US","MEAN_ANOMALY":"258.6705","MEAN_MOTION_DOT":"0.00000081","APOAPSIS":"547.925","GP_ID":"183730374","REV_AT_EPOCH":"7647"},{"OBJECT_ID":"2020-025AZ","OBJECT_TYPE":"PAYLOAD","REF_FRAME":"TEME","CLASSIFICATION_TYPE":"U","CENTER_NAME":"EARTH","TLE_LINE1":"1 45578U 20025AZ  21242.48174220 -.00002073  00000-0 -12039-3 0  9999","SITE":"AFETR","EPOCH":"2021-08-30T11:33:42.526080","NORAD_CAT_ID":"45578","OBJECT_NAME":"STARLINK-1331","PERIOD":"95.593","ARG_OF_PERICENTER":"90.0901","MEAN_MOTION":"15.06389353","ELEMENT_SET_NO":"999","LAUNCH_DATE":"2020-04-22","FILE":"3105635","MEAN_ELEMENT_THEORY":"SGP4","ECCENTRICITY":"0.00009440","BSTAR":"-0.00012039000000","EPHEMERIS_TYPE":"0","RCS_SIZE":"LARGE","MEAN_MOTION_DDOT":"0.0000000000000","TIME_SYSTEM":"UTC","RA_OF_ASC_NODE":"293.6747","PERIAPSIS":"546.592","DECAY_DATE":null,"INCLINATION":"53.0551","SEMIMAJOR_AXIS":"6925.381","TLE_LINE2":"2 45578  53.0551 293.6747 0000944  90.0901 270.0196 15.06389353 76498","COUNTRY_CODE":"US","MEAN_ANOMALY":"270.0196","APOAPSIS":"547.900","MEAN_MOTION_DOT":"-0.00002073","GP_ID":"183729626","REV_AT_EPOCH":"7649"},{"COUNTRY_CODE":"US","TLE_LINE2":"2 45579  53.0528 252.5215 0005154 182.4631 177.6333 15.06391505 76498","GP_ID":"183734333","REV_AT_EPOCH":"7649","MEAN_ANOMALY":"177.6333","MEAN_MOTION_DOT":"0.00000132","APOAPSIS":"550.809","TIME_SYSTEM":"UTC","EPHEMERIS_TYPE":"0","RCS_SIZE":"LARGE","MEAN_MOTION_DDOT":"0.0000000000000","INCLINATION":"53.0528","SEMIMAJOR_AXIS":"6925.375","RA_OF_ASC_NODE":"252.5215","PERIAPSIS":"543.670","DECAY_DATE":null,"ELEMENT_SET_NO":"999","FILE":"3105684","LAUNCH_DATE":"2020-04-22","MEAN_ELEMENT_THEORY":"SGP4","ECCENTRICITY":"0.00051540","NORAD_CAT_ID":"45579","OBJECT_NAME":"STARLINK-1332","ARG_OF_PERICENTER":"182.4631","PERIOD":"95.593","MEAN_MOTION":"15.06391505","BSTAR":"0.00002784500000","OBJECT_ID":"2020-025BA","CENTER_NAME":"EARTH","SITE":"AFETR","TLE_LINE1":"1 45579U 20025BA  21242.73881009  .00000132  00000-0  27845-4 0  9992","EPOCH":"2021-08-30T17:43:53.191776","CLASSIFICATION_TYPE":"U","OBJECT_TYPE":"PAYLOAD","REF_FRAME":"TEME"},{"REV_AT_EPOCH":"7634","GP_ID":"183730128","APOAPSIS":"547.982","MEAN_MOTION_DOT":"-0.00001689","MEAN_ANOMALY":"262.5243","COUNTRY_CODE":"US","TLE_LINE2":"2 45580  53.0535 303.6473 0001088  97.5870 262.5243 15.06395226 76347","SEMIMAJOR_AXIS":"6925.363","INCLINATION":"53.0535","DECAY_DATE":null,"PERIAPSIS":"546.475","RA_OF_ASC_NODE":"303.6473","TIME_SYSTEM":"UTC","MEAN_MOTION_DDOT":"0.0000000000000","RCS_SIZE":"LARGE","EPHEMERIS_TYPE":"0","BSTAR":"-0.00009455500000","ECCENTRICITY":"0.00010880","FILE":"3105635","LAUNCH_DATE":"2020-04-22","MEAN_ELEMENT_THEORY":"SGP4","ELEMENT_SET_NO":"999","ARG_OF_PERICENTER":"97.5870","PERIOD":"95.592","MEAN_MOTION":"15.06395226","OBJECT_NAME":"STARLINK-1333","NORAD_CAT_ID":"45580","EPOCH":"2021-08-30T11:42:59.389632","TLE_LINE1":"1 45580U 20025BB  21242.48818738 -.00001689  00000-0 -94555-4 0  9997","SITE":"AFETR","CENTER_NAME":"EARTH","OBJECT_TYPE":"PAYLOAD","CLASSIFICATION_TYPE":"U","REF_FRAME":"TEME","OBJECT_ID":"2020-025BB"},{"EPHEMERIS_TYPE":"0","RCS_SIZE":"LARGE","MEAN_MOTION_DDOT":"0.0000000000000","TIME_SYSTEM":"UTC","RA_OF_ASC_NODE":"293.9274","PERIAPSIS":"546.510","DECAY_DATE":null,"INCLINATION":"53.0541","SEMIMAJOR_AXIS":"6925.379","TLE_LINE2":"2 45581  53.0541 293.9274 0001060  81.2246 278.8862 15.06390159 76473","COUNTRY_CODE":"US","MEAN_ANOMALY":"278.8862","MEAN_MOTION_DOT":"-0.00000155","APOAPSIS":"547.978","GP_ID":"183730874","REV_AT_EPOCH":"7647","OBJECT_ID":"2020-025BC","OBJECT_TYPE":"PAYLOAD","REF_FRAME":"TEME","CLASSIFICATION_TYPE":"U","CENTER_NAME":"EARTH","TLE_LINE1":"1 45581U 20025BC  21242.42645390 -.00000155  00000-0  84520-5 0  9992","SITE":"AFETR","EPOCH":"2021-08-30T10:14:05.616960","NORAD_CAT_ID":"45581","OBJECT_NAME":"STARLINK-1335","PERIOD":"95.593","ARG_OF_PERICENTER":"81.2246","MEAN_MOTION":"15.06390159","ELEMENT_SET_NO":"999","MEAN_ELEMENT_THEORY":"SGP4","FILE":"3105635","LAUNCH_DATE":"2020-04-22","ECCENTRICITY":"0.00010600","BSTAR":"0.00000845200000"}];
